CCSDS_OMM_VERS = 2.0
CREATION_DATE  = 
ORIGINATOR     = 

OBJECT_NAME    = STARLINK-35400
OBJECT_ID      = 2025-253Q
CENTER_NAME    = EARTH
REF_FRAME      = TEME
TIME_SYSTEM    = UTC
MEAN_ELEMENT_THEORY = SGP/SGP4

EPOCH          = 2025-11-21T22:00:03.000096
MEAN_MOTION    = 15.73279587
ECCENTRICITY   = .0001566
INCLINATION    = 42.9994
RA_OF_ASC_NODE = 106.9762
ARG_OF_PERICENTER = 287.0652
MEAN_ANOMALY   = 121.2685

EPHEMERIS_TYPE = 0
CLASSIFICATION_TYPE = U
NORAD_CAT_ID   = 66333
ELEMENT_SET_NO = 999
REV_AT_EPOCH   = 358
BSTAR          = -.15259E-1
MEAN_MOTION_DOT = -.1888888E-1
MEAN_MOTION_DDOT = 0

CCSDS_OMM_VERS = 2.0
CREATION_DATE  = 
ORIGINATOR     = 

OBJECT_NAME    = STARLINK-35407
OBJECT_ID      = 2025-253R
CENTER_NAME    = EARTH
REF_FRAME      = TEME
TIME_SYSTEM    = UTC
MEAN_ELEMENT_THEORY = SGP/SGP4

EPOCH          = 2025-11-21T22:00:03.000096
MEAN_MOTION    = 15.73279957
ECCENTRICITY   = .0001645
INCLINATION    = 42.9994
RA_OF_ASC_NODE = 106.9919
ARG_OF_PERICENTER = 282.7431
MEAN_ANOMALY   = 119.8395

EPHEMERIS_TYPE = 0
CLASSIFICATION_TYPE = U
NORAD_CAT_ID   = 66334
ELEMENT_SET_NO = 999
REV_AT_EPOCH   = 358
BSTAR          = -.15245E-1
MEAN_MOTION_DOT = -.1887512E-1
MEAN_MOTION_DDOT = 0

CCSDS_OMM_VERS = 2.0
CREATION_DATE  = 
ORIGINATOR     = 

OBJECT_NAME    = STARLINK-35417
OBJECT_ID      = 2025-253S
CENTER_NAME    = EARTH
REF_FRAME      = TEME
TIME_SYSTEM    = UTC
MEAN_ELEMENT_THEORY = SGP/SGP4

EPOCH          = 2025-11-21T22:00:03.000096
MEAN_MOTION    = 15.73280086
ECCENTRICITY   = .0001636
INCLINATION    = 42.9994
RA_OF_ASC_NODE = 106.9526
ARG_OF_PERICENTER = 282.1953
MEAN_ANOMALY   = 135.7270

EPHEMERIS_TYPE = 0
CLASSIFICATION_TYPE = U
NORAD_CAT_ID   = 66335
ELEMENT_SET_NO = 999
REV_AT_EPOCH   = 358
BSTAR          = -.15289E-1
MEAN_MOTION_DOT = -.1892151E-1
MEAN_MOTION_DDOT = 0

CCSDS_OMM_VERS = 2.0
CREATION_DATE  = 
ORIGINATOR     = 

OBJECT_NAME    = STARLINK-35404
OBJECT_ID      = 2025-253T
CENTER_NAME    = EARTH
REF_FRAME      = TEME
TIME_SYSTEM    = UTC
MEAN_ELEMENT_THEORY = SGP/SGP4

EPOCH          = 2025-11-21T22:00:03.000096
MEAN_MOTION    = 15.73283859
ECCENTRICITY   = .0001606
INCLINATION    = 42.9993
RA_OF_ASC_NODE = 106.9675
ARG_OF_PERICENTER = 288.7128
MEAN_ANOMALY   = 123.4488

EPHEMERIS_TYPE = 0
CLASSIFICATION_TYPE = U
NORAD_CAT_ID   = 66336
ELEMENT_SET_NO = 999
REV_AT_EPOCH   = 367
BSTAR          = -.1527E-1
MEAN_MOTION_DOT = -.1890429E-1
MEAN_MOTION_DDOT = 0

CCSDS_OMM_VERS = 2.0
CREATION_DATE  = 
ORIGINATOR     = 

OBJECT_NAME    = STARLINK-34783
OBJECT_ID      = 2025-253U
CENTER_NAME    = EARTH
REF_FRAME      = TEME
TIME_SYSTEM    = UTC
MEAN_ELEMENT_THEORY = SGP/SGP4

EPOCH          = 2025-11-21T22:00:03.000096
MEAN_MOTION    = 15.73283614
ECCENTRICITY   = .0001758
INCLINATION    = 42.9994
RA_OF_ASC_NODE = 106.9483
ARG_OF_PERICENTER = 290.2977
MEAN_ANOMALY   = 129.5331

EPHEMERIS_TYPE = 0
CLASSIFICATION_TYPE = U
NORAD_CAT_ID   = 66337
ELEMENT_SET_NO = 999
REV_AT_EPOCH   = 363
BSTAR          = -.15282E-1
MEAN_MOTION_DOT = -.1891792E-1
MEAN_MOTION_DDOT = 0

CCSDS_OMM_VERS = 2.0
CREATION_DATE  = 
ORIGINATOR     = 

OBJECT_NAME    = STARLINK-35477
OBJECT_ID      = 2025-253V
CENTER_NAME    = EARTH
REF_FRAME      = TEME
TIME_SYSTEM    = UTC
MEAN_ELEMENT_THEORY = SGP/SGP4

EPOCH          = 2025-11-21T22:00:03.000096
MEAN_MOTION    = 15.73280418
ECCENTRICITY   = .0001757
INCLINATION    = 42.9994
RA_OF_ASC_NODE = 106.9583
ARG_OF_PERICENTER = 286.5322
MEAN_ANOMALY   = 129.4687

EPHEMERIS_TYPE = 0
CLASSIFICATION_TYPE = U
NORAD_CAT_ID   = 66338
ELEMENT_SET_NO = 999
REV_AT_EPOCH   = 367
BSTAR          = -.15264E-1
MEAN_MOTION_DOT = -.1889587E-1
MEAN_MOTION_DDOT = 0

CCSDS_OMM_VERS = 2.0
CREATION_DATE  = 
ORIGINATOR     = 

OBJECT_NAME    = STARLINK-35443
OBJECT_ID      = 2025-253W
CENTER_NAME    = EARTH
REF_FRAME      = TEME
TIME_SYSTEM    = UTC
MEAN_ELEMENT_THEORY = SGP/SGP4

EPOCH          = 2025-11-21T22:00:03.000096
MEAN_MOTION    = 15.73278026
ECCENTRICITY   = .0001722
INCLINATION    = 42.9993
RA_OF_ASC_NODE = 106.9326
ARG_OF_PERICENTER = 288.7078
MEAN_ANOMALY   = 136.8785

EPHEMERIS_TYPE = 0
CLASSIFICATION_TYPE = U
NORAD_CAT_ID   = 66339
ELEMENT_SET_NO = 999
REV_AT_EPOCH   = 363
BSTAR          = -.1523E-1
MEAN_MOTION_DOT = -.1885818E-1
MEAN_MOTION_DDOT = 0

CCSDS_OMM_VERS = 2.0
CREATION_DATE  = 
ORIGINATOR     = 

OBJECT_NAME    = STARLINK-35218
OBJECT_ID      = 2025-253X
CENTER_NAME    = EARTH
REF_FRAME      = TEME
TIME_SYSTEM    = UTC
MEAN_ELEMENT_THEORY = SGP/SGP4

EPOCH          = 2025-11-21T22:00:03.000096
MEAN_MOTION    = 15.73274626
ECCENTRICITY   = .0001703
INCLINATION    = 42.9994
RA_OF_ASC_NODE = 106.9622
ARG_OF_PERICENTER = 285.6057
MEAN_ANOMALY   = 128.4825

EPHEMERIS_TYPE = 0
CLASSIFICATION_TYPE = U
NORAD_CAT_ID   = 66340
ELEMENT_SET_NO = 999
REV_AT_EPOCH   = 367
BSTAR          = -.1521E-1
MEAN_MOTION_DOT = -.1883356E-1
MEAN_MOTION_DDOT = 0

CCSDS_OMM_VERS = 2.0
CREATION_DATE  = 
ORIGINATOR     = 

OBJECT_NAME    = STARLINK-35522
OBJECT_ID      = 2025-253Y
CENTER_NAME    = EARTH
REF_FRAME      = TEME
TIME_SYSTEM    = UTC
MEAN_ELEMENT_THEORY = SGP/SGP4

EPOCH          = 2025-11-21T22:00:03.000096
MEAN_MOTION    = 15.73282700
ECCENTRICITY   = .000178
INCLINATION    = 42.9996
RA_OF_ASC_NODE = 106.9828
ARG_OF_PERICENTER = 287.3849
MEAN_ANOMALY   = 119.0261

EPHEMERIS_TYPE = 0
CLASSIFICATION_TYPE = U
NORAD_CAT_ID   = 66341
ELEMENT_SET_NO = 999
REV_AT_EPOCH   = 367
BSTAR          = -.15253E-1
MEAN_MOTION_DOT = -.1888656E-1
MEAN_MOTION_DDOT = 0

CCSDS_OMM_VERS = 2.0
CREATION_DATE  = 
ORIGINATOR     = 

OBJECT_NAME    = STARLINK-35535
OBJECT_ID      = 2025-253Z
CENTER_NAME    = EARTH
REF_FRAME      = TEME
TIME_SYSTEM    = UTC
MEAN_ELEMENT_THEORY = SGP/SGP4

EPOCH          = 2025-11-21T22:00:03.000096
MEAN_MOTION    = 15.73286059
ECCENTRICITY   = .0001659
INCLINATION    = 42.9994
RA_OF_ASC_NODE = 106.9374
ARG_OF_PERICENTER = 288.2312
MEAN_ANOMALY   = 135.4316

EPHEMERIS_TYPE = 0
CLASSIFICATION_TYPE = U
NORAD_CAT_ID   = 66342
ELEMENT_SET_NO = 999
REV_AT_EPOCH   = 358
BSTAR          = -.15294E-1
MEAN_MOTION_DOT = -.189314E-1
MEAN_MOTION_DDOT = 0

CCSDS_OMM_VERS = 2.0
CREATION_DATE  = 
ORIGINATOR     = 

OBJECT_NAME    = STARLINK-35467
OBJECT_ID      = 2025-253AA
CENTER_NAME    = EARTH
REF_FRAME      = TEME
TIME_SYSTEM    = UTC
MEAN_ELEMENT_THEORY = SGP/SGP4

EPOCH          = 2025-11-21T22:00:03.000096
MEAN_MOTION    = 15.73278188
ECCENTRICITY   = .0001664
INCLINATION    = 42.9991
RA_OF_ASC_NODE = 106.9419
ARG_OF_PERICENTER = 287.2781
MEAN_ANOMALY   = 134.4752

EPHEMERIS_TYPE = 0
CLASSIFICATION_TYPE = U
NORAD_CAT_ID   = 66343
ELEMENT_SET_NO = 999
REV_AT_EPOCH   = 358
BSTAR          = -.1524E-1
MEAN_MOTION_DOT = -.1886842E-1
MEAN_MOTION_DDOT = 0

CCSDS_OMM_VERS = 2.0
CREATION_DATE  = 
ORIGINATOR     = 

OBJECT_NAME    = STARLINK-35511
OBJECT_ID      = 2025-253AB
CENTER_NAME    = EARTH
REF_FRAME      = TEME
TIME_SYSTEM    = UTC
MEAN_ELEMENT_THEORY = SGP/SGP4

EPOCH          = 2025-11-21T22:00:03.000096
MEAN_MOTION    = 15.73283007
ECCENTRICITY   = .0001676
INCLINATION    = 42.9992
RA_OF_ASC_NODE = 106.9187
ARG_OF_PERICENTER = 280.6039
MEAN_ANOMALY   = 150.7314

EPHEMERIS_TYPE = 0
CLASSIFICATION_TYPE = U
NORAD_CAT_ID   = 66344
ELEMENT_SET_NO = 999
REV_AT_EPOCH   = 358
BSTAR          = -.1527E-1
MEAN_MOTION_DOT = -.1890369E-1
MEAN_MOTION_DDOT = 0

