STARLINK-35400          
1 66333U 25253Q   25325.91670139 -.01888888  00000+0 -15259-1 0  9994
2 66333  42.9994 106.9762 0001566 287.0652 121.2685 15.73279587  3584
STARLINK-35407          
1 66334U 25253R   25325.91670139 -.01887512  00000+0 -15245-1 0  9993
2 66334  42.9994 106.9919 0001645 282.7431 119.8395 15.73279957  3586
STARLINK-35417          
1 66335U 25253S   25325.91670139 -.01892151  00000+0 -15289-1 0  9997
2 66335  42.9994 106.9526 0001636 282.1953 135.7270 15.73280086  3588
STARLINK-35404          
1 66336U 25253T   25325.91670139 -.01890429  00000+0 -15270-1 0  9994
2 66336  42.9993 106.9675 0001606 288.7128 123.4488 15.73283859  3672
STARLINK-34783          
1 66337U 25253U   25325.91670139 -.01891792  00000+0 -15282-1 0  9992
2 66337  42.9994 106.9483 0001758 290.2977 129.5331 15.73283614  3638
STARLINK-35477          
1 66338U 25253V   25325.91670139 -.01889587  00000+0 -15264-1 0  9992
2 66338  42.9994 106.9583 0001757 286.5322 129.4687 15.73280418  3677
STARLINK-35443          
1 66339U 25253W   25325.91670139 -.01885818  00000+0 -15230-1 0  9999
2 66339  42.9993 106.9326 0001722 288.7078 136.8785 15.73278026  3635
STARLINK-35218          
1 66340U 25253X   25325.91670139 -.01883356  00000+0 -15210-1 0  9994
2 66340  42.9994 106.9622 0001703 285.6057 128.4825 15.73274626  3677
STARLINK-35522          
1 66341U 25253Y   25325.91670139 -.01888656  00000+0 -15253-1 0  9990
2 66341  42.9996 106.9828 0001780 287.3849 119.0261 15.73282700  3673
STARLINK-35535          
1 66342U 25253Z   25325.91670139 -.01893140  00000+0 -15294-1 0  9990
2 66342  42.9994 106.9374 0001659 288.2312 135.4316 15.73286059  3582
STARLINK-35467          
1 66343U 25253AA  25325.91670139 -.01886842  00000+0 -15240-1 0  9993
2 66343  42.9991 106.9419 0001664 287.2781 134.4752 15.73278188  3582
STARLINK-35511          
1 66344U 25253AB  25325.91670139 -.01890369  00000+0 -15270-1 0  9996
2 66344  42.9992 106.9187 0001676 280.6039 150.7314 15.73283007  3583
